GLOBALSTAR M045         
1 25676U 99019A   24160.07197902 -.00000028  00000+0  58170-3 0  9996
2 25676  51.9979 291.5565 0000901 153.8327  17.4284 12.27039819147707
GLOBALSTAR M019         
1 25677U 99019B   24159.86667940 -.00000143  00000+0 -55236-3 0  9995
2 25677  51.9901  36.1706 0000558 341.7444 147.3345 12.13857898139688
GLOBALSTAR M044         
1 25678U 99019C   24159.70875900 -.00000081  00000+0  42304-4 0  9999
2 25678  51.9982 301.1228 0006459  43.8367 328.7298 11.90233280126733
GLOBALSTAR M025         
1 25770U 99031A   24159.67983737 -.00000070  00000+0 -81888-4 0  9999
2 25770  51.9834 306.8408 0001307 211.0284 161.6786 11.22550596439659
GLOBALSTAR M049         
1 25771U 99031B   24159.90033786 -.00000041  00000+0  83850-3 0  9993
2 25771  51.9897 322.2832 0003474 109.4021 250.7151 11.12109775 75782
GLOBALSTAR M047         
1 25772U 99031C   24159.90051404 -.00000052  00000+0  47472-3 0  9993
2 25772  51.9861 355.0107 0016082 342.8805  17.1457 11.31921161428727
GLOBALSTAR M052         
1 25773U 99031D   24159.96711240 -.00000039  00000+0  88867-3 0  9999
2 25773  51.9880  76.0675 0002423 284.9423 158.3308 11.15051182436760
